{"type": "FeatureCollection", "features": [{"type": "Feature", "id": "zone-1", "geometry": {"type": "Polygon", "coordinates": [[[37.454653316283114, 45.351407177986566], [37.454658214880645, 45.35122721615079], [37.45478582965768, 45.35122894306702], [37.45478338056677, 45.351318923991066], [37.45491099555742, 45.35132065077015], [37.45490854665701, 45.35141063169805], [37.454653316283114, 45.351407177986566]]]}, "properties": {"id": "zone-1", "pixels": 3, "area_km2": 0.0003, "probability_max": 0.6103, "probability_mean": 0.4047, "centroid": [37.454762, 45.351334], "status_label": "обнаружено"}}, {"type": "Feature", "id": "zone-2", "geometry": {"type": "Polygon", "coordinates": [[[37.45682277593459, 45.35143651636157], [37.456825221803975, 45.351346535352896], [37.45708045216652, 45.35134998420758], [37.45707800670128, 45.351439965227], [37.45682277593459, 45.35143651636157]]]}, "properties": {"id": "zone-2", "pixels": 2, "area_km2": 0.0002, "probability_max": 0.5914, "probability_mean": 0.3766, "centroid": [37.456952, 45.351393], "status_label": "обнаружено"}}, {"type": "Feature", "id": "zone-3", "geometry": {"type": "Polygon", "coordinates": [[[37.394502065185094, 45.35219756249514], [37.39450715454766, 45.35201760588904], [37.39463476741043, 45.35201940003376], [37.39462967845196, 45.35219935665105], [37.394502065185094, 45.35219756249514]]]}, "properties": {"id": "zone-3", "pixels": 2, "area_km2": 0.0002, "probability_max": 0.5048, "probability_mean": 0.3988, "centroid": [37.394568, 45.352108], "status_label": "обнаружено"}}]}