{
 "type": "FeatureCollection",
 "name": "littora-aoi-russia",
 "features": [
  {
   "type": "Feature",
   "id": "novorossiysk",
   "properties": {
    "id": "novorossiysk",
    "name": "Новороссийск, Цемесская бухта",
    "sea": "black",
    "sea_name": "Чёрное море",
    "kind": "port",
    "priority": 1,
    "tile": "37TDK",
    "note": "крупнейший порт на Чёрном море, нефтеналивные терминалы"
   },
   "bbox": [
    37.7466,
    44.6,
    37.9998,
    44.78
   ],
   "geometry": {
    "type": "Polygon",
    "coordinates": [
     [
      [
       37.7466,
       44.6
      ],
      [
       37.9998,
       44.6
      ],
      [
       37.9998,
       44.78
      ],
      [
       37.7466,
       44.78
      ],
      [
       37.7466,
       44.6
      ]
     ]
    ]
   }
  },
  {
   "type": "Feature",
   "id": "anapa",
   "properties": {
    "id": "anapa",
    "name": "Анапа — Благовещенская",
    "sea": "black",
    "sea_name": "Чёрное море",
    "kind": "coast",
    "priority": 1,
    "tile": "37TCK",
    "note": "пляжная зона, разлив мазута в декабре 2024"
   },
   "bbox": [
    37.0887,
    44.86,
    37.3713,
    45.06
   ],
   "geometry": {
    "type": "Polygon",
    "coordinates": [
     [
      [
       37.0887,
       44.86
      ],
      [
       37.3713,
       44.86
      ],
      [
       37.3713,
       45.06
      ],
      [
       37.0887,
       45.06
      ],
      [
       37.0887,
       44.86
      ]
     ]
    ]
   }
  },
  {
   "type": "Feature",
   "id": "kerch-strait",
   "properties": {
    "id": "kerch-strait",
    "name": "Керченский пролив",
    "sea": "black",
    "sea_name": "Чёрное море",
    "kind": "strait",
    "priority": 1,
    "tile": "36TYR",
    "note": "пролив между Чёрным и Азовским морями, интенсивное судоходство"
   },
   "bbox": [
    36.3611,
    45.12,
    36.7589,
    45.4
   ],
   "geometry": {
    "type": "Polygon",
    "coordinates": [
     [
      [
       36.3611,
       45.12
      ],
      [
       36.7589,
       45.12
      ],
      [
       36.7589,
       45.4
      ],
      [
       36.3611,
       45.4
      ],
      [
       36.3611,
       45.12
      ]
     ]
    ]
   }
  },
  {
   "type": "Feature",
   "id": "tuapse",
   "properties": {
    "id": "tuapse",
    "name": "Туапсе",
    "sea": "black",
    "sea_name": "Чёрное море",
    "kind": "port",
    "priority": 2,
    "tile": "37TEJ",
    "note": "порт и нефтеналивной терминал, устье р. Туапсе"
   },
   "bbox": [
    39.0086,
    44.01,
    39.2314,
    44.17
   ],
   "geometry": {
    "type": "Polygon",
    "coordinates": [
     [
      [
       39.0086,
       44.01
      ],
      [
       39.2314,
       44.01
      ],
      [
       39.2314,
       44.17
      ],
      [
       39.0086,
       44.17
      ],
      [
       39.0086,
       44.01
      ]
     ]
    ]
   }
  },
  {
   "type": "Feature",
   "id": "sochi",
   "properties": {
    "id": "sochi",
    "name": "Сочи — Адлер",
    "sea": "black",
    "sea_name": "Чёрное море",
    "kind": "coast",
    "priority": 2,
    "tile": "37TEJ",
    "note": "курортное побережье, устья Сочи и Мзымты"
   },
   "bbox": [
    39.6621,
    43.42,
    39.9379,
    43.62
   ],
   "geometry": {
    "type": "Polygon",
    "coordinates": [
     [
      [
       39.6621,
       43.42
      ],
      [
       39.9379,
       43.42
      ],
      [
       39.9379,
       43.62
      ],
      [
       39.6621,
       43.62
      ],
      [
       39.6621,
       43.42
      ]
     ]
    ]
   }
  },
  {
   "type": "Feature",
   "id": "don-delta",
   "properties": {
    "id": "don-delta",
    "name": "Таганрогский залив, дельта Дона",
    "sea": "azov",
    "sea_name": "Азовское море",
    "kind": "river_mouth",
    "priority": 1,
    "tile": "37TEN",
    "note": "вынос Дона, порты Ростов-на-Дону, Азов, Таганрог"
   },
   "bbox": [
    39.0058,
    47.05,
    39.2998,
    47.25
   ],
   "geometry": {
    "type": "Polygon",
    "coordinates": [
     [
      [
       39.0058,
       47.05
      ],
      [
       39.2998,
       47.05
      ],
      [
       39.2998,
       47.25
      ],
      [
       39.0058,
       47.25
      ],
      [
       39.0058,
       47.05
      ]
     ]
    ]
   }
  },
  {
   "type": "Feature",
   "id": "kuban-mouth",
   "properties": {
    "id": "kuban-mouth",
    "name": "Темрюкский залив, устье Кубани",
    "sea": "azov",
    "sea_name": "Азовское море",
    "kind": "river_mouth",
    "priority": 2,
    "tile": "37TCL",
    "note": "вынос Кубани, порт Темрюк"
   },
   "bbox": [
    37.2461,
    45.28,
    37.4739,
    45.44
   ],
   "geometry": {
    "type": "Polygon",
    "coordinates": [
     [
      [
       37.2461,
       45.28
      ],
      [
       37.4739,
       45.28
      ],
      [
       37.4739,
       45.44
      ],
      [
       37.2461,
       45.44
      ],
      [
       37.2461,
       45.28
      ]
     ]
    ]
   }
  },
  {
   "type": "Feature",
   "id": "yeysk",
   "properties": {
    "id": "yeysk",
    "name": "Ейск",
    "sea": "azov",
    "sea_name": "Азовское море",
    "kind": "port",
    "priority": 3,
    "tile": "37TDM",
    "note": "порт и Ейский лиман"
   },
   "bbox": [
    38.1479,
    46.65,
    38.3521,
    46.79
   ],
   "geometry": {
    "type": "Polygon",
    "coordinates": [
     [
      [
       38.1479,
       46.65
      ],
      [
       38.3521,
       46.65
      ],
      [
       38.3521,
       46.79
      ],
      [
       38.1479,
       46.79
      ],
      [
       38.1479,
       46.65
      ]
     ]
    ]
   }
  },
  {
   "type": "Feature",
   "id": "volga-delta",
   "properties": {
    "id": "volga-delta",
    "name": "Дельта Волги, Каспийское взморье",
    "sea": "caspian",
    "sea_name": "Каспийское море",
    "kind": "river_mouth",
    "priority": 1,
    "tile": "38TQR",
    "note": "морской край дельты и авандельта: вынос Волги — крупнейшей реки Европы"
   },
   "bbox": [
    48.1794,
    45.18,
    48.5206,
    45.42
   ],
   "geometry": {
    "type": "Polygon",
    "coordinates": [
     [
      [
       48.1794,
       45.18
      ],
      [
       48.5206,
       45.18
      ],
      [
       48.5206,
       45.42
      ],
      [
       48.1794,
       45.42
      ],
      [
       48.1794,
       45.18
      ]
     ]
    ]
   }
  },
  {
   "type": "Feature",
   "id": "makhachkala",
   "properties": {
    "id": "makhachkala",
    "name": "Махачкала",
    "sea": "caspian",
    "sea_name": "Каспийское море",
    "kind": "port",
    "priority": 2,
    "tile": "38TQN",
    "note": "единственный незамерзающий российский порт на Каспии"
   },
   "bbox": [
    47.4574,
    42.9,
    47.6762,
    43.06
   ],
   "geometry": {
    "type": "Polygon",
    "coordinates": [
     [
      [
       47.4574,
       42.9
      ],
      [
       47.6762,
       42.9
      ],
      [
       47.6762,
       43.06
      ],
      [
       47.4574,
       43.06
      ],
      [
       47.4574,
       42.9
      ]
     ]
    ]
   }
  },
  {
   "type": "Feature",
   "id": "neva-bay",
   "properties": {
    "id": "neva-bay",
    "name": "Невская губа, Санкт-Петербург",
    "sea": "baltic",
    "sea_name": "Балтийское море",
    "kind": "river_mouth",
    "priority": 1,
    "tile": "36VUM",
    "note": "вынос Невы, порт Санкт-Петербург, город 5,6 млн"
   },
   "bbox": [
    29.8003,
    59.85,
    30.1997,
    60.05
   ],
   "geometry": {
    "type": "Polygon",
    "coordinates": [
     [
      [
       29.8003,
       59.85
      ],
      [
       30.1997,
       59.85
      ],
      [
       30.1997,
       60.05
      ],
      [
       29.8003,
       60.05
      ],
      [
       29.8003,
       59.85
      ]
     ]
    ]
   }
  },
  {
   "type": "Feature",
   "id": "ust-luga",
   "properties": {
    "id": "ust-luga",
    "name": "Усть-Луга",
    "sea": "baltic",
    "sea_name": "Балтийское море",
    "kind": "port",
    "priority": 2,
    "tile": "35VNG",
    "note": "один из крупнейших портов Балтики по грузообороту"
   },
   "bbox": [
    28.2415,
    59.6,
    28.5585,
    59.76
   ],
   "geometry": {
    "type": "Polygon",
    "coordinates": [
     [
      [
       28.2415,
       59.6
      ],
      [
       28.5585,
       59.6
      ],
      [
       28.5585,
       59.76
      ],
      [
       28.2415,
       59.76
      ],
      [
       28.2415,
       59.6
      ]
     ]
    ]
   }
  },
  {
   "type": "Feature",
   "id": "primorsk",
   "properties": {
    "id": "primorsk",
    "name": "Приморск",
    "sea": "baltic",
    "sea_name": "Балтийское море",
    "kind": "port",
    "priority": 3,
    "tile": "35VNG",
    "note": "нефтеналивной порт"
   },
   "bbox": [
    28.5085,
    60.28,
    28.7915,
    60.42
   ],
   "geometry": {
    "type": "Polygon",
    "coordinates": [
     [
      [
       28.5085,
       60.28
      ],
      [
       28.7915,
       60.28
      ],
      [
       28.7915,
       60.42
      ],
      [
       28.5085,
       60.42
      ],
      [
       28.5085,
       60.28
      ]
     ]
    ]
   }
  },
  {
   "type": "Feature",
   "id": "baltiysk",
   "properties": {
    "id": "baltiysk",
    "name": "Балтийск, Калининградский залив",
    "sea": "baltic",
    "sea_name": "Балтийское море",
    "kind": "port",
    "priority": 2,
    "tile": "34UDF",
    "note": "выход из Калининградского залива, порты Калининград и Балтийск"
   },
   "bbox": [
    19.7117,
    54.58,
    19.9883,
    54.74
   ],
   "geometry": {
    "type": "Polygon",
    "coordinates": [
     [
      [
       19.7117,
       54.58
      ],
      [
       19.9883,
       54.58
      ],
      [
       19.9883,
       54.74
      ],
      [
       19.7117,
       54.74
      ],
      [
       19.7117,
       54.58
      ]
     ]
    ]
   }
  },
  {
   "type": "Feature",
   "id": "kola-bay",
   "properties": {
    "id": "kola-bay",
    "name": "Кольский залив, Мурманск",
    "sea": "barents",
    "sea_name": "Баренцево море",
    "kind": "port",
    "priority": 1,
    "tile": "36WWB",
    "note": "незамерзающий порт Мурманск, рыбный и нефтеналивной флот"
   },
   "bbox": [
    33.0083,
    68.96,
    33.7931,
    69.24
   ],
   "geometry": {
    "type": "Polygon",
    "coordinates": [
     [
      [
       33.0083,
       68.96
      ],
      [
       33.7931,
       68.96
      ],
      [
       33.7931,
       69.24
      ],
      [
       33.0083,
       69.24
      ],
      [
       33.0083,
       68.96
      ]
     ]
    ]
   }
  },
  {
   "type": "Feature",
   "id": "pechora-bay",
   "properties": {
    "id": "pechora-bay",
    "name": "Печорская губа, устье Печоры",
    "sea": "barents",
    "sea_name": "Баренцево море",
    "kind": "river_mouth",
    "priority": 2,
    "tile": "39WXS",
    "note": "вынос Печоры, нефтедобыча на шельфе"
   },
   "bbox": [
    53.8146,
    68.3998,
    54.5768,
    68.6798
   ],
   "geometry": {
    "type": "Polygon",
    "coordinates": [
     [
      [
       53.8146,
       68.3998
      ],
      [
       54.5768,
       68.3998
      ],
      [
       54.5768,
       68.6798
      ],
      [
       53.8146,
       68.6798
      ],
      [
       53.8146,
       68.3998
      ]
     ]
    ]
   }
  },
  {
   "type": "Feature",
   "id": "varandey",
   "properties": {
    "id": "varandey",
    "name": "Варандей",
    "sea": "barents",
    "sea_name": "Баренцево море",
    "kind": "port",
    "priority": 3,
    "tile": "40WEB",
    "note": "нефтеналивной терминал"
   },
   "bbox": [
    57.8562,
    68.76,
    58.2438,
    68.9
   ],
   "geometry": {
    "type": "Polygon",
    "coordinates": [
     [
      [
       57.8562,
       68.76
      ],
      [
       58.2438,
       68.76
      ],
      [
       58.2438,
       68.9
      ],
      [
       57.8562,
       68.9
      ],
      [
       57.8562,
       68.76
      ]
     ]
    ]
   }
  },
  {
   "type": "Feature",
   "id": "dvina-bay",
   "properties": {
    "id": "dvina-bay",
    "name": "Двинская губа, Архангельск",
    "sea": "white",
    "sea_name": "Белое море",
    "kind": "river_mouth",
    "priority": 1,
    "tile": "37WEM",
    "note": "вынос Северной Двины, порт Архангельск"
   },
   "bbox": [
    39.919,
    64.6,
    40.481,
    64.84
   ],
   "geometry": {
    "type": "Polygon",
    "coordinates": [
     [
      [
       39.919,
       64.6
      ],
      [
       40.481,
       64.6
      ],
      [
       40.481,
       64.84
      ],
      [
       39.919,
       64.84
      ],
      [
       39.919,
       64.6
      ]
     ]
    ]
   }
  },
  {
   "type": "Feature",
   "id": "kandalaksha",
   "properties": {
    "id": "kandalaksha",
    "name": "Кандалакшский залив",
    "sea": "white",
    "sea_name": "Белое море",
    "kind": "bay",
    "priority": 3,
    "tile": "36WVV",
    "note": "порт Кандалакша, заповедник"
   },
   "bbox": [
    32.2944,
    67.02,
    32.7056,
    67.18
   ],
   "geometry": {
    "type": "Polygon",
    "coordinates": [
     [
      [
       32.2944,
       67.02
      ],
      [
       32.7056,
       67.02
      ],
      [
       32.7056,
       67.18
      ],
      [
       32.2944,
       67.18
      ],
      [
       32.2944,
       67.02
      ]
     ]
    ]
   }
  },
  {
   "type": "Feature",
   "id": "ob-sabetta",
   "properties": {
    "id": "ob-sabetta",
    "name": "Обская губа, Сабетта",
    "sea": "kara",
    "sea_name": "Карское море",
    "kind": "port",
    "priority": 2,
    "tile": "42WXE",
    "note": "порт Сабетта, вывоз СПГ"
   },
   "bbox": [
    71.8102,
    71.15,
    72.5576,
    71.39
   ],
   "geometry": {
    "type": "Polygon",
    "coordinates": [
     [
      [
       71.8102,
       71.15
      ],
      [
       72.5576,
       71.15
      ],
      [
       72.5576,
       71.39
      ],
      [
       71.8102,
       71.39
      ],
      [
       71.8102,
       71.15
      ]
     ]
    ]
   }
  },
  {
   "type": "Feature",
   "id": "yenisei-gulf",
   "properties": {
    "id": "yenisei-gulf",
    "name": "Енисейский залив",
    "sea": "kara",
    "sea_name": "Карское море",
    "kind": "river_mouth",
    "priority": 3,
    "tile": "44XMF",
    "note": "вынос Енисея, выход к порту Диксон"
   },
   "bbox": [
    80.0898,
    72.12,
    81.2738,
    72.48
   ],
   "geometry": {
    "type": "Polygon",
    "coordinates": [
     [
      [
       80.0898,
       72.12
      ],
      [
       81.2738,
       72.12
      ],
      [
       81.2738,
       72.48
      ],
      [
       80.0898,
       72.48
      ],
      [
       80.0898,
       72.12
      ]
     ]
    ]
   }
  },
  {
   "type": "Feature",
   "id": "tiksi-lena",
   "properties": {
    "id": "tiksi-lena",
    "name": "Бухта Тикси, дельта Лены",
    "sea": "laptev",
    "sea_name": "море Лаптевых",
    "kind": "river_mouth",
    "priority": 2,
    "tile": "52WDE",
    "note": "вынос Лены, порт Тикси"
   },
   "bbox": [
    128.2309,
    71.59,
    129.2527,
    71.91
   ],
   "geometry": {
    "type": "Polygon",
    "coordinates": [
     [
      [
       128.2309,
       71.59
      ],
      [
       129.2527,
       71.59
      ],
      [
       129.2527,
       71.91
      ],
      [
       128.2309,
       71.91
      ],
      [
       128.2309,
       71.59
      ]
     ]
    ]
   }
  },
  {
   "type": "Feature",
   "id": "kolyma-mouth",
   "properties": {
    "id": "kolyma-mouth",
    "name": "Устье Колымы",
    "sea": "east_siberian",
    "sea_name": "Восточно-Сибирское море",
    "kind": "river_mouth",
    "priority": 3,
    "tile": "57WWT",
    "note": "вынос Колымы"
   },
   "bbox": [
    160.9953,
    69.46,
    161.7985,
    69.74
   ],
   "geometry": {
    "type": "Polygon",
    "coordinates": [
     [
      [
       160.9953,
       69.46
      ],
      [
       161.7985,
       69.46
      ],
      [
       161.7985,
       69.74
      ],
      [
       160.9953,
       69.74
      ],
      [
       160.9953,
       69.46
      ]
     ]
    ]
   }
  },
  {
   "type": "Feature",
   "id": "pevek",
   "properties": {
    "id": "pevek",
    "name": "Певек, Чаунская губа",
    "sea": "east_siberian",
    "sea_name": "Восточно-Сибирское море",
    "kind": "port",
    "priority": 3,
    "tile": "59WMT",
    "note": "порт, самый северный город России"
   },
   "bbox": [
    170.0692,
    69.64,
    170.5308,
    69.8
   ],
   "geometry": {
    "type": "Polygon",
    "coordinates": [
     [
      [
       170.0692,
       69.64
      ],
      [
       170.5308,
       69.64
      ],
      [
       170.5308,
       69.8
      ],
      [
       170.0692,
       69.8
      ],
      [
       170.0692,
       69.64
      ]
     ]
    ]
   }
  },
  {
   "type": "Feature",
   "id": "bering-strait",
   "properties": {
    "id": "bering-strait",
    "name": "Берингов пролив, Уэлен",
    "sea": "chukchi",
    "sea_name": "Чукотское море",
    "kind": "strait",
    "priority": 3,
    "tile": "2WNU",
    "note": "вход в Чукотское море, Северный морской путь"
   },
   "bbox": [
    -170.0456,
    65.96,
    -169.3544,
    66.24
   ],
   "geometry": {
    "type": "Polygon",
    "coordinates": [
     [
      [
       -170.0456,
       65.96
      ],
      [
       -169.3544,
       65.96
      ],
      [
       -169.3544,
       66.24
      ],
      [
       -170.0456,
       66.24
      ],
      [
       -170.0456,
       65.96
      ]
     ]
    ]
   }
  },
  {
   "type": "Feature",
   "id": "anadyr",
   "properties": {
    "id": "anadyr",
    "name": "Анадырский лиман",
    "sea": "bering",
    "sea_name": "Берингово море",
    "kind": "river_mouth",
    "priority": 3,
    "tile": "60WWS",
    "note": "вынос Анадыря, порт Анадырь"
   },
   "bbox": [
    177.2658,
    64.62,
    177.7342,
    64.82
   ],
   "geometry": {
    "type": "Polygon",
    "coordinates": [
     [
      [
       177.2658,
       64.62
      ],
      [
       177.7342,
       64.62
      ],
      [
       177.7342,
       64.82
      ],
      [
       177.2658,
       64.82
      ],
      [
       177.2658,
       64.62
      ]
     ]
    ]
   }
  },
  {
   "type": "Feature",
   "id": "avacha",
   "properties": {
    "id": "avacha",
    "name": "Авачинская губа, Петропавловск-Камчатский",
    "sea": "pacific",
    "sea_name": "Тихий океан",
    "kind": "port",
    "priority": 2,
    "tile": "57UVU",
    "note": "порт Петропавловск-Камчатский"
   },
   "bbox": [
    158.4506,
    52.88,
    158.7494,
    53.06
   ],
   "geometry": {
    "type": "Polygon",
    "coordinates": [
     [
      [
       158.4506,
       52.88
      ],
      [
       158.7494,
       52.88
      ],
      [
       158.7494,
       53.06
      ],
      [
       158.4506,
       53.06
      ],
      [
       158.4506,
       52.88
      ]
     ]
    ]
   }
  },
  {
   "type": "Feature",
   "id": "magadan",
   "properties": {
    "id": "magadan",
    "name": "Магадан, бухта Нагаева",
    "sea": "okhotsk",
    "sea_name": "Охотское море",
    "kind": "port",
    "priority": 3,
    "tile": "56VLM",
    "note": "порт Магадан"
   },
   "bbox": [
    150.6119,
    59.48,
    150.8881,
    59.62
   ],
   "geometry": {
    "type": "Polygon",
    "coordinates": [
     [
      [
       150.6119,
       59.48
      ],
      [
       150.8881,
       59.48
      ],
      [
       150.8881,
       59.62
      ],
      [
       150.6119,
       59.62
      ],
      [
       150.6119,
       59.48
      ]
     ]
    ]
   }
  },
  {
   "type": "Feature",
   "id": "aniva",
   "properties": {
    "id": "aniva",
    "name": "Залив Анива, Корсаков",
    "sea": "okhotsk",
    "sea_name": "Охотское море",
    "kind": "port",
    "priority": 2,
    "tile": "54TXS",
    "note": "порт Корсаков, завод СПГ Пригородное"
   },
   "bbox": [
    142.7045,
    46.5,
    142.9955,
    46.7
   ],
   "geometry": {
    "type": "Polygon",
    "coordinates": [
     [
      [
       142.7045,
       46.5
      ],
      [
       142.9955,
       46.5
      ],
      [
       142.9955,
       46.7
      ],
      [
       142.7045,
       46.7
      ],
      [
       142.7045,
       46.5
      ]
     ]
    ]
   }
  },
  {
   "type": "Feature",
   "id": "amur-liman",
   "properties": {
    "id": "amur-liman",
    "name": "Амурский лиман",
    "sea": "okhotsk",
    "sea_name": "Охотское море",
    "kind": "river_mouth",
    "priority": 2,
    "tile": "54UWD",
    "note": "вынос Амура"
   },
   "bbox": [
    141.014,
    52.84,
    141.5458,
    53.16
   ],
   "geometry": {
    "type": "Polygon",
    "coordinates": [
     [
      [
       141.014,
       52.84
      ],
      [
       141.5458,
       52.84
      ],
      [
       141.5458,
       53.16
      ],
      [
       141.014,
       53.16
      ],
      [
       141.014,
       52.84
      ]
     ]
    ]
   }
  },
  {
   "type": "Feature",
   "id": "vladivostok",
   "properties": {
    "id": "vladivostok",
    "name": "Владивосток: Амурский залив, Золотой Рог",
    "sea": "japan",
    "sea_name": "Японское море",
    "kind": "port",
    "priority": 1,
    "tile": "52TGN",
    "note": "крупнейший порт Дальнего Востока, город 0,6 млн"
   },
   "bbox": [
    131.713,
    43.0,
    131.987,
    43.2
   ],
   "geometry": {
    "type": "Polygon",
    "coordinates": [
     [
      [
       131.713,
       43.0
      ],
      [
       131.987,
       43.0
      ],
      [
       131.987,
       43.2
      ],
      [
       131.713,
       43.2
      ],
      [
       131.713,
       43.0
      ]
     ]
    ]
   }
  },
  {
   "type": "Feature",
   "id": "nakhodka",
   "properties": {
    "id": "nakhodka",
    "name": "Находка, Восточный",
    "sea": "japan",
    "sea_name": "Японское море",
    "kind": "port",
    "priority": 2,
    "tile": "53TLH",
    "note": "порты Находка и Восточный, угольные терминалы"
   },
   "bbox": [
    132.891,
    42.69,
    133.109,
    42.85
   ],
   "geometry": {
    "type": "Polygon",
    "coordinates": [
     [
      [
       132.891,
       42.69
      ],
      [
       133.109,
       42.69
      ],
      [
       133.109,
       42.85
      ],
      [
       132.891,
       42.85
      ],
      [
       132.891,
       42.69
      ]
     ]
    ]
   }
  },
  {
   "type": "Feature",
   "id": "vanino",
   "properties": {
    "id": "vanino",
    "name": "Ванино, Советская Гавань",
    "sea": "japan",
    "sea_name": "Японское море",
    "kind": "port",
    "priority": 3,
    "tile": "54UVV",
    "note": "порты Татарского пролива"
   },
   "bbox": [
    140.208,
    48.94,
    140.452,
    49.1
   ],
   "geometry": {
    "type": "Polygon",
    "coordinates": [
     [
      [
       140.208,
       48.94
      ],
      [
       140.452,
       48.94
      ],
      [
       140.452,
       49.1
      ],
      [
       140.208,
       49.1
      ],
      [
       140.208,
       48.94
      ]
     ]
    ]
   }
  }
 ]
}
