{"type": "FeatureCollection", "features": [{"type": "Feature", "id": "zone-1", "geometry": {"type": "Polygon", "coordinates": [[[37.825591417268164, 44.70822940034865], [37.825593237488604, 44.708139395401346], [37.82546702437727, 44.7081380973012], [37.82547066518358, 44.70795808741026], [37.82572309063275, 44.70796068345487], [37.82571763058354, 44.70823069831339], [37.825591417268164, 44.70822940034865]]]}, "properties": {"id": "zone-1", "pixels": 5, "area_km2": 0.0005, "probability_max": 1.0, "probability_mean": 0.9825, "centroid": [37.825607, 44.708077], "status_label": "обнаружено"}}, {"type": "Feature", "id": "zone-2", "geometry": {"type": "Polygon", "coordinates": [[[37.81582896850237, 44.71028914906907], [37.8158326394556, 44.71010913987062], [37.81595885641281, 44.710110448662824], [37.815960691681, 44.7100204440573], [37.81621312523017, 44.710023061215175], [37.8162094554673, 44.710203070441096], [37.81595702113602, 44.710200453266886], [37.81595518585063, 44.710290457869455], [37.81582896850237, 44.71028914906907]]]}, "properties": {"id": "zone-2", "pixels": 6, "area_km2": 0.0006, "probability_max": 0.9999, "probability_mean": 0.7229, "centroid": [37.816021, 44.710141], "status_label": "обнаружено"}}, {"type": "Feature", "id": "zone-3", "geometry": {"type": "Polygon", "coordinates": [[[37.8209673357406, 44.712142790528134], [37.82097281862157, 44.71187277631591], [37.82109903964586, 44.711874079467584], [37.821100867060174, 44.71178407472315], [37.82122708789748, 44.711785377731275], [37.82122160621549, 44.71205539197235], [37.82109538479154, 44.71205408895202], [37.821093557351524, 44.712144093692004], [37.8209673357406, 44.712142790528134]]]}, "properties": {"id": "zone-3", "pixels": 6, "area_km2": 0.0006, "probability_max": 0.9998, "probability_mean": 0.9817, "centroid": [37.821097, 44.711964], "status_label": "обнаружено"}}, {"type": "Feature", "id": "zone-4", "geometry": {"type": "MultiPolygon", "coordinates": [[[[37.82088508327475, 44.71619300210933], [37.82088325524514, 44.71628300677701], [37.82100948585226, 44.71628431012799], [37.82101131368628, 44.71619430545622], [37.82088508327475, 44.71619300210933]]], [[[37.821263774535005, 44.71619691173155], [37.82126194709216, 44.716286916411455], [37.82138817772497, 44.716288219343944], [37.82138452320477, 44.7164682287074], [37.82151075423732, 44.71646953150854], [37.82150892715997, 44.716559536192115], [37.821635158396674, 44.71656083885783], [37.821633331506355, 44.716650843543974], [37.821759562947214, 44.71665214607427], [37.821757736243924, 44.716742150763004], [37.821883967888944, 44.71674345315786], [37.82188214137269, 44.71683345784918], [37.82200837322186, 44.71683476010861], [37.82201202585462, 44.71665475071638], [37.82188579439664, 44.71665344846507], [37.821887620895765, 44.71656344377079], [37.82176138964194, 44.71656214138405], [37.82176321632811, 44.71647213669235], [37.82163698527843, 44.71647083417019], [37.82163881215163, 44.71638082948106], [37.8215125813061, 44.71637952682348], [37.821516235417995, 44.71619951744893], [37.82139000497222, 44.71619821465998], [37.82139365944103, 44.716018205287625], [37.821014969328616, 44.71601429610827], [37.82101131368628, 44.71619430545622], [37.821263774535005, 44.71619691173155]]]]}, "properties": {"id": "zone-4", "pixels": 19, "area_km2": 0.0019, "probability_max": 0.9995, "probability_mean": 0.7886, "centroid": [37.82147, 44.716367], "status_label": "обнаружено"}}, {"type": "Feature", "id": "zone-5", "geometry": {"type": "Polygon", "coordinates": [[[37.8363033466355, 44.70914927705436], [37.836306953983225, 44.70896926649943], [37.83655938480309, 44.70897183863887], [37.83655577823746, 44.70915184920985], [37.8363033466355, 44.70914927705436]]]}, "properties": {"id": "zone-5", "pixels": 4, "area_km2": 0.0004, "probability_max": 0.9994, "probability_mean": 0.7229, "centroid": [37.836431, 44.709061], "status_label": "обнаружено"}}, {"type": "Feature", "id": "zone-6", "geometry": {"type": "Polygon", "coordinates": [[[37.80569120625311, 44.718285691769076], [37.805694909661, 44.718105683486016], [37.80594737742074, 44.71810832370666], [37.80594922872046, 44.71801831955466], [37.8062016961237, 44.718020959209085], [37.806203547023536, 44.71793095504736], [37.806456014070264, 44.71793359413558], [37.80645786457023, 44.71784358996412], [37.806584097911, 44.717844909294875], [37.80658594820668, 44.717754905117836], [37.80683841452304, 44.7177575433526], [37.806840264418845, 44.71766753916584], [37.80709273037869, 44.71767017683441], [37.80709457987463, 44.71758017263794], [37.80759951111592, 44.717585446284694], [37.80759766240239, 44.71767545049763], [37.80785012846622, 44.71767808649228], [37.80784828013522, 44.71776809071196], [37.80797451337573, 44.717769408504154], [37.807972665231674, 44.71785941272646], [37.8077201983681, 44.71785677699435], [37.807722046903365, 44.71776677278026], [37.80746958046566, 44.7177641364984], [37.80747142938346, 44.71767413229106], [37.807345196373205, 44.717672813945], [37.807343347259796, 44.71776281814822], [37.80696464769422, 44.717758862260744], [37.80696279798535, 44.71784886645015], [37.806836564618564, 44.717847547537886], [37.80683471470542, 44.717937551721676], [37.80658224760664, 44.71793491347044], [37.80658039729362, 44.71802491764451], [37.80632792983834, 44.71802227882706], [37.80632607912543, 44.71811228299142], [37.80619984521519, 44.71811096336932], [37.80619799429801, 44.71820096752807], [37.805945526112346, 44.71819832785717], [37.80594367479527, 44.718288332006196], [37.80569120625311, 44.718285691769076]]]}, "properties": {"id": "zone-6", "pixels": 31, "area_km2": 0.0031, "probability_max": 0.9975, "probability_mean": 0.7103, "centroid": [37.806764, 44.717886], "status_label": "обнаружено"}}, {"type": "Feature", "id": "zone-7", "geometry": {"type": "Polygon", "coordinates": [[[37.834938628956124, 44.70166339339604], [37.834944044896766, 44.701393377337], [37.83507024378059, 44.701394664812355], [37.83506843867094, 44.70148467017087], [37.83519463775866, 44.70148595751082], [37.83519102790489, 44.701665968231445], [37.834938628956124, 44.70166339339604]]]}, "properties": {"id": "zone-7", "pixels": 5, "area_km2": 0.0005, "probability_max": 0.9952, "probability_mean": 0.6448, "centroid": [37.835055, 44.701548], "status_label": "обнаружено"}}, {"type": "Feature", "id": "zone-8", "geometry": {"type": "Polygon", "coordinates": [[[37.83482145699708, 44.70121207901681], [37.83482326247223, 44.7011220736619], [37.83507565905877, 44.70112464872792], [37.8350738539745, 44.701214654090876], [37.83482145699708, 44.70121207901681]]]}, "properties": {"id": "zone-8", "pixels": 2, "area_km2": 0.0002, "probability_max": 0.9919, "probability_mean": 0.9739, "centroid": [37.834949, 44.701168], "status_label": "обнаружено"}}, {"type": "Feature", "id": "zone-9", "geometry": {"type": "Polygon", "coordinates": [[[37.822410802693646, 44.715668604735896], [37.822414453930364, 44.715488595280725], [37.82254068287993, 44.715489896921255], [37.82254250828988, 44.71539989218737], [37.82266873705241, 44.715401193684365], [37.822663261383674, 44.71567120789373], [37.822410802693646, 44.715668604735896]]]}, "properties": {"id": "zone-9", "pixels": 5, "area_km2": 0.0005, "probability_max": 0.9855, "probability_mean": 0.6955, "centroid": [37.822552, 44.715553], "status_label": "обнаружено"}}, {"type": "Feature", "id": "zone-10", "geometry": {"type": "Polygon", "coordinates": [[[37.83617357251073, 44.70302634269384], [37.83617717949092, 44.702846331953424], [37.8363033815865, 44.702847618098815], [37.83629977499722, 44.70302762884725], [37.83617357251073, 44.70302634269384]]]}, "properties": {"id": "zone-10", "pixels": 2, "area_km2": 0.0002, "probability_max": 0.9536, "probability_mean": 0.5869, "centroid": [37.836238, 44.702937], "status_label": "обнаружено"}}, {"type": "Feature", "id": "zone-11", "geometry": {"type": "Polygon", "coordinates": [[[37.81601858039093, 44.71956354200984], [37.81602041617123, 44.71947353755194], [37.81627289082517, 44.719476155009545], [37.81627105543611, 44.719566159475605], [37.81601858039093, 44.71956354200984]]]}, "properties": {"id": "zone-11", "pixels": 2, "area_km2": 0.0002, "probability_max": 0.9261, "probability_mean": 0.893, "centroid": [37.816146, 44.71952], "status_label": "обнаружено"}}, {"type": "Feature", "id": "zone-12", "geometry": {"type": "Polygon", "coordinates": [[[37.80790073564803, 44.70291473973146], [37.80790627750171, 44.70264472635773], [37.80815867826051, 44.70264736097892], [37.80815313757954, 44.70291737437733], [37.80790073564803, 44.70291473973146]]]}, "properties": {"id": "zone-12", "pixels": 6, "area_km2": 0.0006, "probability_max": 0.8592, "probability_mean": 0.6146, "centroid": [37.80803, 44.702781], "status_label": "обнаружено"}}, {"type": "Feature", "id": "zone-13", "geometry": {"type": "Polygon", "coordinates": [[[37.80301983336122, 44.71312637911123], [37.80302354438421, 44.712946370840356], [37.803149766920704, 44.71294769385394], [37.80314605628882, 44.71312770213307], [37.80301983336122, 44.71312637911123]]]}, "properties": {"id": "zone-13", "pixels": 2, "area_km2": 0.0002, "probability_max": 0.8015, "probability_mean": 0.5094, "centroid": [37.803085, 44.713037], "status_label": "обнаружено"}}, {"type": "Feature", "id": "zone-14", "geometry": {"type": "Polygon", "coordinates": [[[37.835183808095834, 44.7020259896549], [37.83518741801728, 44.70184597894613], [37.83531361789524, 44.70184726616274], [37.8353100083647, 44.702027276879534], [37.835183808095834, 44.7020259896549]]]}, "properties": {"id": "zone-14", "pixels": 2, "area_km2": 0.0002, "probability_max": 0.7445, "probability_mean": 0.6621, "centroid": [37.835249, 44.701937], "status_label": "обнаружено"}}, {"type": "Feature", "id": "zone-15", "geometry": {"type": "Polygon", "coordinates": [[[37.81776598235645, 44.71436028147454], [37.81776964782575, 44.71418027227902], [37.81789587372009, 44.7141815790234], [37.81789220864192, 44.71436158822708], [37.81776598235645, 44.71436028147454]]]}, "properties": {"id": "zone-15", "pixels": 2, "area_km2": 0.0002, "probability_max": 0.5487, "probability_mean": 0.3658, "centroid": [37.817831, 44.714271], "status_label": "обнаружено"}}]}