{"type": "FeatureCollection", "features": [{"type": "Feature", "id": "zone-1", "geometry": {"type": "Polygon", "coordinates": [[[37.78383560671255, 44.73092836331894], [37.7838393795439, 44.73074835688304], [37.78396563990165, 44.73074970151636], [37.783967526108334, 44.73065969829198], [37.78409378627919, 44.730661042781556], [37.78408812821981, 44.730931052462815], [37.78383560671255, 44.73092836331894]]]}, "properties": {"id": "zone-1", "pixels": 5, "area_km2": 0.0005, "probability_max": 0.9998, "probability_mean": 0.8975, "centroid": [37.783977, 44.730813], "status_label": "обнаружено"}}, {"type": "Feature", "id": "zone-2", "geometry": {"type": "Polygon", "coordinates": [[[37.82010940856835, 44.71708522546465], [37.82011306712039, 44.71690521620333], [37.81998683520412, 44.716903911847446], [37.81998866466287, 44.716813907218636], [37.819862432950785, 44.71681260272734], [37.81986609223376, 44.716632593473385], [37.81973986092143, 44.71663128885074], [37.819741690745644, 44.71654128422562], [37.81986792186238, 44.71654258884419], [37.819869751482436, 44.71645258421352], [37.81974352056129, 44.71645127959901], [37.81974718016684, 44.716271270341345], [37.81999964123535, 44.716273879414594], [37.81999049411306, 44.716723902588335], [37.82011672563813, 44.71672520693608], [37.820114896383544, 44.71681521157045], [37.820241128112784, 44.71681651578277], [37.82023929904522, 44.71690652041972], [37.82036553097863, 44.71690782449662], [37.82036187320898, 44.71708783377422], [37.82010940856835, 44.71708522546465]]]}, "properties": {"id": "zone-2", "pixels": 16, "area_km2": 0.0016, "probability_max": 0.9995, "probability_mean": 0.7295, "centroid": [37.820015, 44.71669], "status_label": "обнаружено"}}, {"type": "Feature", "id": "zone-3", "geometry": {"type": "Polygon", "coordinates": [[[37.782863279074256, 44.72911753720631], [37.782865166883184, 44.72902753399294], [37.78273891032368, 44.729026188183454], [37.78274268630642, 44.72884618176065], [37.78312145483721, 44.72885021874531], [37.78311579261121, 44.72912022841506], [37.782863279074256, 44.72911753720631]]]}, "properties": {"id": "zone-3", "pixels": 8, "area_km2": 0.0008, "probability_max": 0.9994, "probability_mean": 0.7945, "centroid": [37.782945, 44.728972], "status_label": "обнаружено"}}, {"type": "Feature", "id": "zone-4", "geometry": {"type": "Polygon", "coordinates": [[[37.78502283645347, 44.728510371664576], [37.785028489687065, 44.728240361774795], [37.78528099961047, 44.728243048155164], [37.78527534755109, 44.7285130580701], [37.78502283645347, 44.728510371664576]]]}, "properties": {"id": "zone-4", "pixels": 6, "area_km2": 0.0006, "probability_max": 0.9993, "probability_mean": 0.8878, "centroid": [37.785152, 44.728377], "status_label": "обнаружено"}}, {"type": "Feature", "id": "zone-5", "geometry": {"type": "MultiPolygon", "coordinates": [[[[37.81132752449975, 44.72050506551437], [37.81132936761304, 44.72041506122423], [37.81107688932782, 44.72041243279517], [37.81107504582327, 44.720502437077116], [37.81132752449975, 44.72050506551437]]], [[[37.81107504582327, 44.720502437077116], [37.81094880649799, 44.72050112264921], [37.810950650198166, 44.72041111837139], [37.81082441107716, 44.72040980380808], [37.8108207232769, 44.720589812354056], [37.81094696278917, 44.72059112692556], [37.81094327534561, 44.720771135473804], [37.811069515257785, 44.720772449914], [37.81107504582327, 44.720502437077116]]], [[[37.8108151915117, 44.72085982516188], [37.81068895142117, 44.72085851043856], [37.81068710728652, 44.72094851470076], [37.81093958786748, 44.7209511440161], [37.81094327534561, 44.720771135473804], [37.81081703544207, 44.72076982089409], [37.8108151915117, 44.72085982516188]]]]}, "properties": {"id": "zone-5", "pixels": 10, "area_km2": 0.001, "probability_max": 0.9988, "probability_mean": 0.6954, "centroid": [37.810971, 44.720645], "status_label": "обнаружено"}}, {"type": "Feature", "id": "zone-6", "geometry": {"type": "Polygon", "coordinates": [[[37.78221121814013, 44.73010084176022], [37.782213107024994, 44.730010838584214], [37.78259188308239, 44.73001487740724], [37.78258999478468, 44.730104880595846], [37.78221121814013, 44.73010084176022]]]}, "properties": {"id": "zone-6", "pixels": 3, "area_km2": 0.0003, "probability_max": 0.9987, "probability_mean": 0.8701, "centroid": [37.782402, 44.730058], "status_label": "обнаружено"}}, {"type": "Feature", "id": "zone-7", "geometry": {"type": "MultiPolygon", "coordinates": [[[[37.784116417721116, 44.729581003922675], [37.78412018950434, 44.72940099742537], [37.784246446943975, 44.72940234171666], [37.784250218300414, 44.72922233520501], [37.78450273242334, 44.72922502335216], [37.784506502961584, 44.7290450168178], [37.784632759644886, 44.729046360673664], [37.784634644705044, 44.72895635740005], [37.784760901201466, 44.72895770111218], [37.78476278605709, 44.7288676978329], [37.78438401718144, 44.72886366629046], [37.78438024628712, 44.729043672822385], [37.7842539896215, 44.72904232868743], [37.78425210396538, 44.729132331946964], [37.78412584711288, 44.72913098766826], [37.784123961252206, 44.72922099092213], [37.78399770421284, 44.729219646499686], [37.78399393207355, 44.72939965299455], [37.783867674651596, 44.72939830842417], [37.78386578837298, 44.72948831166518], [37.78373953076416, 44.72948696695104], [37.783737644280976, 44.72957697018637], [37.784116417721116, 44.729581003922675]]], [[[37.78361138648528, 44.72957562532851], [37.78360761310097, 44.72975563178628], [37.78373387128809, 44.72975697665254], [37.783737644280976, 44.72957697018637], [37.78361138648528, 44.72957562532851]]]]}, "properties": {"id": "zone-7", "pixels": 21, "area_km2": 0.0021, "probability_max": 0.9984, "probability_mean": 0.7519, "centroid": [37.784192, 44.729262], "status_label": "обнаружено"}}, {"type": "Feature", "id": "zone-8", "geometry": {"type": "Polygon", "coordinates": [[[37.8006674299298, 44.72921589613841], [37.80066929013447, 44.72912589233573], [37.800543032532055, 44.729124566206416], [37.800544892923725, 44.72903456240639], [37.80067115033043, 44.729035888531556], [37.800674870696184, 44.728855880918765], [37.80080112772018, 44.728857206896116], [37.800799267737375, 44.72894721070738], [37.8009255249658, 44.72894853654933], [37.80092180536547, 44.7291285441757], [37.800795547745615, 44.72912721832549], [37.80079368773665, 44.72921722213232], [37.8006674299298, 44.72921589613841]]]}, "properties": {"id": "zone-8", "pixels": 7, "area_km2": 0.0007, "probability_max": 0.9977, "probability_mean": 0.8895, "centroid": [37.800752, 44.729043], "status_label": "обнаружено"}}, {"type": "Feature", "id": "zone-9", "geometry": {"type": "MultiPolygon", "coordinates": [[[[37.80919622812141, 44.719762672205974], [37.809198074491164, 44.71967266797375], [37.80932431193476, 44.71967398431778], [37.80932615810024, 44.71958398007995], [37.80907368361295, 44.719581347260615], [37.80906999049085, 44.71976135571834], [37.80919622812141, 44.719762672205974]]], [[[37.80894375286895, 44.7197600390912], [37.80894005932098, 44.71994004753478], [37.808813821316484, 44.719938730759914], [37.808810127342646, 44.720118739189324], [37.80893636573839, 44.720120055972416], [37.80893821253401, 44.720030051754335], [37.80906445074279, 44.720031368393805], [37.80906999049085, 44.71976135571834], [37.80894375286895, 44.7197600390912]]]]}, "properties": {"id": "zone-9", "pixels": 8, "area_km2": 0.0008, "probability_max": 0.9958, "probability_mean": 0.9066, "centroid": [37.809037, 44.71984], "status_label": "обнаружено"}}, {"type": "Feature", "id": "zone-10", "geometry": {"type": "Polygon", "coordinates": [[[37.78047764274511, 44.72846192091827], [37.78048142566693, 44.728281914628965], [37.78073393534465, 44.72828461106468], [37.78073015320564, 44.72846461737081], [37.78047764274511, 44.72846192091827]]]}, "properties": {"id": "zone-10", "pixels": 4, "area_km2": 0.0004, "probability_max": 0.9948, "probability_mean": 0.8266, "centroid": [37.780606, 44.728373], "status_label": "обнаружено"}}, {"type": "Feature", "id": "zone-11", "geometry": {"type": "Polygon", "coordinates": [[[37.80769801526913, 44.71893682744751], [37.80769986390836, 44.718846823251255], [37.80757362833789, 44.71884550513071], [37.80757547716408, 44.71875550093706], [37.807827947922455, 44.71875813703043], [37.8078260994875, 44.71884814123229], [37.8079523350753, 44.718849459073844], [37.80795048682729, 44.718939463278325], [37.80769801526913, 44.71893682744751]]]}, "properties": {"id": "zone-11", "pixels": 4, "area_km2": 0.0004, "probability_max": 0.9917, "probability_mean": 0.7786, "centroid": [37.807763, 44.718847], "status_label": "обнаружено"}}, {"type": "Feature", "id": "zone-12", "geometry": {"type": "Polygon", "coordinates": [[[37.78175909008686, 44.72757536567279], [37.78176097950661, 44.72748536247195], [37.7816347263537, 44.72748401547801], [37.78163850555802, 44.72730400908029], [37.78189101108992, 44.72730670291182], [37.78189290028741, 44.7272166997023], [37.78201915287095, 44.72721804640456], [37.78201348583899, 44.7274880560412], [37.78188723266837, 44.727486709326335], [37.78188534344431, 44.72757671253139], [37.78175909008686, 44.72757536567279]]]}, "properties": {"id": "zone-12", "pixels": 8, "area_km2": 0.0008, "probability_max": 0.991, "probability_mean": 0.6641, "centroid": [37.781842, 44.727396], "status_label": "обнаружено"}}, {"type": "Feature", "id": "zone-13", "geometry": {"type": "Polygon", "coordinates": [[[37.78337962820745, 44.72858289966236], [37.78338340214465, 44.728402893182704], [37.78350965737844, 44.728404238265085], [37.783511544138065, 44.72831423501882], [37.78376405424078, 44.728316924756584], [37.78376028149549, 44.7284969312644], [37.783634026048304, 44.7284955864569], [37.78363213946669, 44.72858558970438], [37.78337962820745, 44.72858289966236]]]}, "properties": {"id": "zone-13", "pixels": 7, "area_km2": 0.0007, "probability_max": 0.9896, "probability_mean": 0.5642, "centroid": [37.783572, 44.72845], "status_label": "обнаружено"}}, {"type": "Feature", "id": "zone-14", "geometry": {"type": "Polygon", "coordinates": [[[37.78064928599561, 44.72630319324904], [37.780651177052505, 44.726213190065224], [37.780524926718954, 44.726211841874374], [37.78052681796266, 44.72612183869328], [37.78090556840287, 44.726125882834644], [37.780903677746196, 44.726215886028356], [37.78077742739492, 44.72621453811656], [37.7807755365337, 44.72630454130457], [37.78064928599561, 44.72630319324904]]]}, "properties": {"id": "zone-14", "pixels": 4, "area_km2": 0.0004, "probability_max": 0.9887, "probability_mean": 0.8982, "centroid": [37.780715, 44.726191], "status_label": "обнаружено"}}, {"type": "Feature", "id": "zone-15", "geometry": {"type": "MultiPolygon", "coordinates": [[[[37.808515158389774, 44.72218620152709], [37.80851700597143, 44.722096197355484], [37.80839076329767, 44.72209488006343], [37.80838891552037, 44.722184884230934], [37.808515158389774, 44.72218620152709]]], [[[37.80838891552037, 44.722184884230934], [37.80826267265963, 44.722183566795266], [37.80826082467802, 44.72227357095716], [37.80838706773441, 44.72227488839693], [37.80838891552037, 44.722184884230934]]], [[[37.808132733444374, 44.72236225753416], [37.808006490209664, 44.72236093981124], [37.80800279342053, 44.72254094811115], [37.808129037046534, 44.7225422658423], [37.808127188834625, 44.72263226999414], [37.808253432664955, 44.722633587589876], [37.808251584640026, 44.72272359174435], [37.808504072717966, 44.72272622652551], [37.808502225075685, 44.72281623068671], [37.80875471357957, 44.72281886491801], [37.808752866319935, 44.72290886908595], [37.808879110780516, 44.72291018599643], [37.808877263707885, 44.72300019016701], [37.80912975304633, 44.72300282357763], [37.809127906356345, 44.72309282775493], [37.8092541512342, 44.72309414425507], [37.809252304731224, 44.723184148434996], [37.80950479490423, 44.72318678102494], [37.8095029487839, 44.7232767852116], [37.809755439382826, 44.72327941725167], [37.809759130832184, 44.723099408860435], [37.809506641015886, 44.7230967768368], [37.809508487118904, 44.72300677264716], [37.80925599772853, 44.723004140073655], [37.8092578442142, 44.722914135890754], [37.80900535524975, 44.722911502767396], [37.80900720211808, 44.72282149859124], [37.808880957844494, 44.72282018182439], [37.80888280489982, 44.722730177650845], [37.80863031676992, 44.72272754370681], [37.808632164207886, 44.722637539539996], [37.80850592035158, 44.72263622236281], [37.808507767976536, 44.72254621819864], [37.808255280681216, 44.72254358343393], [37.80826082467802, 44.72227357095716], [37.8081345816303, 44.722272253377874], [37.808132733444374, 44.72236225753416]]]]}, "properties": {"id": "zone-15", "pixels": 30, "area_km2": 0.003, "probability_max": 0.9879, "probability_mean": 0.603, "centroid": [37.808802, 44.72278], "status_label": "обнаружено"}}, {"type": "Feature", "id": "zone-16", "geometry": {"type": "Polygon", "coordinates": [[[37.78578405101943, 44.722306854335024], [37.78578781667555, 44.72212684749621], [37.785914058371375, 44.72212818977359], [37.78591029310653, 44.72230819662078], [37.78578405101943, 44.722306854335024]]]}, "properties": {"id": "zone-16", "pixels": 2, "area_km2": 0.0002, "probability_max": 0.9852, "probability_mean": 0.9136, "centroid": [37.785849, 44.722218], "status_label": "обнаружено"}}, {"type": "Feature", "id": "zone-17", "geometry": {"type": "MultiPolygon", "coordinates": [[[[37.809567557846925, 44.72012663779525], [37.80956940366442, 44.720036633556624], [37.80944316542103, 44.72003531747518], [37.80944131940791, 44.72012532170969], [37.809567557846925, 44.72012663779525]]], [[[37.80931508097755, 44.72012400548462], [37.80931323476015, 44.720214009713544], [37.80918699614281, 44.720212693344884], [37.80918514972113, 44.7203026975682], [37.80943762735571, 44.72030533017426], [37.80944131940791, 44.72012532170969], [37.80931508097755, 44.72012400548462]]]]}, "properties": {"id": "zone-17", "pixels": 4, "area_km2": 0.0004, "probability_max": 0.9837, "probability_mean": 0.7909, "centroid": [37.809377, 44.720192], "status_label": "обнаружено"}}, {"type": "Feature", "id": "zone-18", "geometry": {"type": "MultiPolygon", "coordinates": [[[[37.809894603247045, 44.7226507036384], [37.80976835930419, 44.722649387856386], [37.80976651362709, 44.72273939206017], [37.809892757765596, 44.72274070784628], [37.809894603247045, 44.7226507036384]]], [[[37.809892757765596, 44.72274070784628], [37.809890912275506, 44.72283071205268], [37.81014340096977, 44.72283334321456], [37.81014524606856, 44.72274333899996], [37.809892757765596, 44.72274070784628]]], [[[37.81039220025773, 44.72301598225957], [37.81039035552431, 44.72310598647794], [37.81064284546168, 44.7231086165483], [37.81064100111094, 44.72319862077339], [37.810893491474204, 44.72320125029389], [37.81089533543364, 44.72311124606058], [37.810769090443344, 44.7231099313742], [37.8107709345898, 44.72301992714352], [37.81051844502644, 44.72301729736041], [37.810520289555555, 44.72292729313644], [37.8103940449825, 44.72292597803972], [37.81039588969863, 44.722835973818384], [37.81014340096977, 44.72283334321456], [37.81013971074624, 44.72301335163934], [37.81039220025773, 44.72301598225957]]]]}, "properties": {"id": "zone-18", "pixels": 13, "area_km2": 0.0013, "probability_max": 0.9829, "probability_mean": 0.6233, "centroid": [37.810359, 44.722957], "status_label": "обнаружено"}}, {"type": "Feature", "id": "zone-19", "geometry": {"type": "Polygon", "coordinates": [[[37.78344738934892, 44.73137434455727], [37.7834530504769, 44.73110433496126], [37.78357931159103, 44.73110568003003], [37.78358119842027, 44.73101567682419], [37.783707459347525, 44.7310170217492], [37.78370368607166, 44.73119702816779], [37.78357742475295, 44.73119568323438], [37.783573651050254, 44.731375689638625], [37.78344738934892, 44.73137434455727]]]}, "properties": {"id": "zone-19", "pixels": 5, "area_km2": 0.0005, "probability_max": 0.9801, "probability_mean": 0.7709, "centroid": [37.783565, 44.731187], "status_label": "обнаружено"}}, {"type": "Feature", "id": "zone-20", "geometry": {"type": "Polygon", "coordinates": [[[37.78439915860412, 44.722112073237305], [37.784401043570966, 44.722022069861794], [37.783896078047064, 44.72201669323544], [37.78389796378764, 44.7219266898752], [37.783771722624394, 44.72192534537404], [37.78377360855176, 44.721835342016504], [37.784278572475216, 44.72184071916733], [37.7842766873304, 44.72193072254164], [37.78452916973641, 44.721933410288386], [37.78452728497403, 44.722023413669596], [37.784653526385924, 44.72202475733789], [37.784651641810356, 44.722114760721794], [37.78439915860412, 44.722112073237305]]]}, "properties": {"id": "zone-20", "pixels": 11, "area_km2": 0.0011, "probability_max": 0.9798, "probability_mean": 0.64, "centroid": [37.784201, 44.721959], "status_label": "обнаружено"}}, {"type": "Feature", "id": "zone-21", "geometry": {"type": "Polygon", "coordinates": [[[37.78615901278964, 44.72249088763175], [37.78616277730721, 44.72231088077374], [37.78641526154318, 44.72231356436867], [37.78641149780818, 44.722493571243426], [37.78615901278964, 44.72249088763175]]]}, "properties": {"id": "zone-21", "pixels": 4, "area_km2": 0.0004, "probability_max": 0.9729, "probability_mean": 0.9402, "centroid": [37.786287, 44.722402], "status_label": "обнаружено"}}, {"type": "Feature", "id": "zone-22", "geometry": {"type": "Polygon", "coordinates": [[[37.820380161714375, 44.71618778732686], [37.820383819312596, 44.71600777801959], [37.82051004929866, 44.7160090819163], [37.820506392091616, 44.7161890912317], [37.820380161714375, 44.71618778732686]]]}, "properties": {"id": "zone-22", "pixels": 2, "area_km2": 0.0002, "probability_max": 0.9651, "probability_mean": 0.9228, "centroid": [37.820445, 44.716098], "status_label": "обнаружено"}}, {"type": "Feature", "id": "zone-23", "geometry": {"type": "Polygon", "coordinates": [[[37.80913344640032, 44.722822815218564], [37.80913529306434, 44.72273281103681], [37.80900904897774, 44.72273149441359], [37.809010895828756, 44.72264149023445], [37.80888465194648, 44.72264017347583], [37.808886498984485, 44.7225501692993], [37.80913898636639, 44.722552802668844], [37.809137139719695, 44.72264280685357], [37.80938962752753, 44.72264543967325], [37.809387781263474, 44.722735443864714], [37.809514025376025, 44.722736760069374], [37.80951217929897, 44.72282676426346], [37.80913344640032, 44.722822815218564]]]}, "properties": {"id": "zone-23", "pixels": 8, "area_km2": 0.0008, "probability_max": 0.9604, "probability_mean": 0.7191, "centroid": [37.809199, 44.7227], "status_label": "обнаружено"}}, {"type": "Feature", "id": "zone-24", "geometry": {"type": "Polygon", "coordinates": [[[37.810752492736285, 44.72391996938353], [37.810754336960535, 44.72382996516619], [37.810628090413594, 44.72382865030747], [37.81062993482486, 44.72373864609276], [37.810503688482235, 44.72373733109862], [37.810507377670156, 44.72355732267298], [37.81025488579348, 44.72355469228255], [37.81025857572946, 44.72337468386736], [37.81038482127216, 44.72337599912414], [37.81038297650415, 44.723466003336576], [37.8106354680068, 44.723468633439765], [37.810631779227485, 44.72364864187659], [37.8107580253831, 44.72364995672712], [37.81075618117614, 44.723739960947405], [37.81088242753606, 44.72374127566249], [37.81088058351612, 44.723831279885395], [37.81100683008035, 44.72383259446508], [37.811004986247426, 44.723922598690606], [37.810752492736285, 44.72391996938353]]]}, "properties": {"id": "zone-24", "pixels": 11, "area_km2": 0.0011, "probability_max": 0.9388, "probability_mean": 0.5615, "centroid": [37.810614, 44.723661], "status_label": "обнаружено"}}, {"type": "Feature", "id": "zone-25", "geometry": {"type": "Polygon", "coordinates": [[[37.777481649546395, 44.7268094649529], [37.77748544154191, 44.72662945881227], [37.7777379437487, 44.726632161794086], [37.77773415253591, 44.72681216795158], [37.777481649546395, 44.7268094649529]]]}, "properties": {"id": "zone-25", "pixels": 4, "area_km2": 0.0004, "probability_max": 0.9356, "probability_mean": 0.6387, "centroid": [37.77761, 44.726721], "status_label": "обнаружено"}}, {"type": "Feature", "id": "zone-26", "geometry": {"type": "Polygon", "coordinates": [[[37.79788043770357, 44.729636707502344], [37.797882302257676, 44.72954670379824], [37.79775604386874, 44.729545374578144], [37.79775790860982, 44.7294553708767], [37.798010425004996, 44.72945802916904], [37.798006696296966, 44.72963803658704], [37.79788043770357, 44.729636707502344]]]}, "properties": {"id": "zone-26", "pixels": 3, "area_km2": 0.0003, "probability_max": 0.9249, "probability_mean": 0.6684, "centroid": [37.797904, 44.729532], "status_label": "обнаружено"}}, {"type": "Feature", "id": "zone-27", "geometry": {"type": "Polygon", "coordinates": [[[37.834940434278124, 44.70157338804451], [37.834944044896766, 44.701393377337], [37.83519644267287, 44.701395952148296], [37.83519283283601, 44.70157596287187], [37.834940434278124, 44.70157338804451]]]}, "properties": {"id": "zone-27", "pixels": 4, "area_km2": 0.0004, "probability_max": 0.9208, "probability_mean": 0.5858, "centroid": [37.835068, 44.701485], "status_label": "обнаружено"}}, {"type": "Feature", "id": "zone-28", "geometry": {"type": "Polygon", "coordinates": [[[37.80871528995502, 44.71858735049726], [37.80871898402576, 44.718407342025586], [37.80884521869613, 44.71840865887008], [37.8088415250166, 44.718588667349984], [37.80871528995502, 44.71858735049726]]]}, "properties": {"id": "zone-28", "pixels": 2, "area_km2": 0.0002, "probability_max": 0.9162, "probability_mean": 0.5419, "centroid": [37.80878, 44.718498], "status_label": "обнаружено"}}, {"type": "Feature", "id": "zone-29", "geometry": {"type": "Polygon", "coordinates": [[[37.811470349798924, 44.71969634082218], [37.811474035470134, 44.7195163322055], [37.81160027267809, 44.719517646030276], [37.81159843004243, 44.71960765034345], [37.81172466745464, 44.7196089640328], [37.811722825005965, 44.719698968348595], [37.811470349798924, 44.71969634082218]]]}, "properties": {"id": "zone-29", "pixels": 3, "area_km2": 0.0003, "probability_max": 0.9115, "probability_mean": 0.6983, "centroid": [37.811577, 44.719622], "status_label": "обнаружено"}}, {"type": "Feature", "id": "zone-30", "geometry": {"type": "Polygon", "coordinates": [[[37.81468636531101, 44.72297061305811], [37.8146900414301, 44.722790604335366], [37.81481628590527, 44.72279191468025], [37.814814448045695, 44.72288191904644], [37.81494069272514, 44.7228832292559], [37.814938855052596, 44.72297323362471], [37.81468636531101, 44.72297061305811]]]}, "properties": {"id": "zone-30", "pixels": 3, "area_km2": 0.0003, "probability_max": 0.8785, "probability_mean": 0.6209, "centroid": [37.814793, 44.722897], "status_label": "обнаружено"}}, {"type": "Feature", "id": "zone-31", "geometry": {"type": "Polygon", "coordinates": [[[37.798747478991196, 44.730456041696], [37.79874934225387, 44.730366037976246], [37.79862308204226, 44.73036470969569], [37.79862494549193, 44.73027470597858], [37.79875120550781, 44.730276034254985], [37.798753068753015, 44.73018603053225], [37.798879328581904, 44.73018735866496], [37.79887373940726, 44.73045736984114], [37.798747478991196, 44.730456041696]]]}, "properties": {"id": "zone-31", "pixels": 4, "area_km2": 0.0004, "probability_max": 0.8704, "probability_mean": 0.5365, "centroid": [37.798782, 44.730321], "status_label": "обнаружено"}}, {"type": "Feature", "id": "zone-32", "geometry": {"type": "Polygon", "coordinates": [[[37.78313655371727, 44.72813019289386], [37.783138441037465, 44.72804018965572], [37.783012186613014, 44.728038844171515], [37.78301407412007, 44.727948840936094], [37.78314032834882, 44.727950186416116], [37.783142215651324, 44.727860183175025], [37.783394723743974, 44.72786287370804], [37.78339283683286, 44.72795287695753], [37.783266582586414, 44.72795153175659], [37.783262808346265, 44.728131538242735], [37.78313655371727, 44.72813019289386]]]}, "properties": {"id": "zone-32", "pixels": 5, "area_km2": 0.0005, "probability_max": 0.8623, "probability_mean": 0.4632, "centroid": [37.783203, 44.727978], "status_label": "обнаружено"}}, {"type": "Feature", "id": "zone-33", "geometry": {"type": "Polygon", "coordinates": [[[37.811266696914686, 44.723475206256104], [37.81126854031308, 44.72338520201496], [37.811142294709875, 44.72338388773483], [37.811144138295276, 44.72329388349631], [37.81139662911901, 44.72329651190881], [37.81139478592491, 44.72338651615555], [37.8115210315454, 44.72338783015663], [37.81151918853833, 44.72347783440598], [37.811266696914686, 44.723475206256104]]]}, "properties": {"id": "zone-33", "pixels": 4, "area_km2": 0.0004, "probability_max": 0.7912, "probability_mean": 0.5425, "centroid": [37.811332, 44.723386], "status_label": "обнаружено"}}, {"type": "Feature", "id": "zone-34", "geometry": {"type": "MultiPolygon", "coordinates": [[[[37.77977877927746, 44.72566373084173], [37.77978256399771, 44.72548372451071], [37.77965631529163, 44.72548237537682], [37.77965442274027, 44.725572378538864], [37.779528173847396, 44.72557102926124], [37.779526281091485, 44.72566103241758], [37.77977877927746, 44.72566373084173]]], [[[37.77914753387907, 44.72565698373491], [37.77914564052726, 44.72574698687712], [37.779271889784866, 44.72574833658175], [37.779269996619874, 44.72583833972671], [37.77952249555305, 44.725841038725804], [37.779526281091485, 44.72566103241758], [37.77914753387907, 44.72565698373491]]]]}, "properties": {"id": "zone-34", "pixels": 8, "area_km2": 0.0008, "probability_max": 0.7903, "probability_mean": 0.5738, "centroid": [37.779478, 44.725683], "status_label": "обнаружено"}}, {"type": "Feature", "id": "zone-35", "geometry": {"type": "Polygon", "coordinates": [[[37.78590474239075, 44.72860977496487], [37.78590662544968, 44.72851977164193], [37.785780369852304, 44.728518429206645], [37.78578225309811, 44.7284284258864], [37.78565599770527, 44.72842708331576], [37.78565788113795, 44.728337079998205], [37.78591039154105, 44.728339764991546], [37.78590850849978, 44.72842976831748], [37.78603476391027, 44.72843111060904], [37.78603288105588, 44.72852111393767], [37.7861591366709, 44.72852245609386], [37.786157254003385, 44.728612459425186], [37.78590474239075, 44.72860977496487]]]}, "properties": {"id": "zone-35", "pixels": 6, "area_km2": 0.0006, "probability_max": 0.7808, "probability_mean": 0.4802, "centroid": [37.785908, 44.728475], "status_label": "обнаружено"}}, {"type": "Feature", "id": "zone-36", "geometry": {"type": "Polygon", "coordinates": [[[37.82089056731218, 44.71592298809737], [37.820892395307524, 44.715832983423745], [37.821018624936684, 44.71583428675438], [37.82102045272788, 44.71574428207521], [37.821146682170024, 44.71574558526228], [37.821143026970255, 44.715925594627265], [37.82089056731218, 44.71592298809737]]]}, "properties": {"id": "zone-36", "pixels": 3, "area_km2": 0.0003, "probability_max": 0.7453, "probability_mean": 0.5183, "centroid": [37.821039, 44.71585], "status_label": "обнаружено"}}, {"type": "Feature", "id": "zone-37", "geometry": {"type": "Polygon", "coordinates": [[[37.778629278592156, 44.72628160538428], [37.778631172779924, 44.72619160226784], [37.77850492258832, 44.7261902518445], [37.77850871132857, 44.72601024561558], [37.77863496112882, 44.726011596030496], [37.77863306695881, 44.726101599149914], [37.77875931696362, 44.72610294942952], [37.77875552898832, 44.7262829556723], [37.778629278592156, 44.72628160538428]]]}, "properties": {"id": "zone-37", "pixels": 4, "area_km2": 0.0004, "probability_max": 0.7411, "probability_mean": 0.6188, "centroid": [37.778632, 44.726147], "status_label": "обнаружено"}}, {"type": "Feature", "id": "zone-38", "geometry": {"type": "Polygon", "coordinates": [[[37.792374867657664, 44.72111641716201], [37.792376740193866, 44.72102641350528], [37.792250500592466, 44.7210250783972], [37.79225237331552, 44.72093507474315], [37.79250485213584, 44.72093774481148], [37.79250297980405, 44.72102774847385], [37.792629219423006, 44.72102908330292], [37.79262734727806, 44.721119086967974], [37.792374867657664, 44.72111641716201]]]}, "properties": {"id": "zone-38", "pixels": 4, "area_km2": 0.0004, "probability_max": 0.732, "probability_mean": 0.5116, "centroid": [37.79244, 44.721027], "status_label": "обнаружено"}}, {"type": "Feature", "id": "zone-39", "geometry": {"type": "Polygon", "coordinates": [[[37.794965277951725, 44.73014612165899], [37.79496714705993, 44.7300561180593], [37.79521966581019, 44.73005878255001], [37.795217797093436, 44.730148786158], [37.794965277951725, 44.73014612165899]]]}, "properties": {"id": "zone-39", "pixels": 2, "area_km2": 0.0002, "probability_max": 0.7282, "probability_mean": 0.5314, "centroid": [37.795092, 44.730102], "status_label": "обнаружено"}}, {"type": "Feature", "id": "zone-40", "geometry": {"type": "Polygon", "coordinates": [[[37.79535339919499, 44.72970010012259], [37.7953571361407, 44.729520092881955], [37.7954833943634, 44.72952142475349], [37.79547965780913, 44.729701432002436], [37.79535339919499, 44.72970010012259]]]}, "properties": {"id": "zone-40", "pixels": 2, "area_km2": 0.0002, "probability_max": 0.7035, "probability_mean": 0.7029, "centroid": [37.795418, 44.729611], "status_label": "обнаружено"}}, {"type": "Feature", "id": "zone-41", "geometry": {"type": "MultiPolygon", "coordinates": [[[[37.78900207326243, 44.719370252572666], [37.78887583741951, 44.719368913773096], [37.788877715266125, 44.71927891020496], [37.788751479627614, 44.719277571270084], [37.788747723534364, 44.71945757839651], [37.78900019560263, 44.71946025614349], [37.78900207326243, 44.719370252572666]]], [[[37.78899831793402, 44.719550259712825], [37.78912455417698, 44.719551598381244], [37.78912643164997, 44.71946159480773], [37.78900019560263, 44.71946025614349], [37.78899831793402, 44.719550259712825]]]]}, "properties": {"id": "zone-41", "pixels": 4, "area_km2": 0.0004, "probability_max": 0.7033, "probability_mean": 0.4684, "centroid": [37.788906, 44.719414], "status_label": "обнаружено"}}, {"type": "Feature", "id": "zone-42", "geometry": {"type": "Polygon", "coordinates": [[[37.83529015534199, 44.70301733571596], [37.835293765058594, 44.70283732503177], [37.83541996709499, 44.702838612153144], [37.8354163577693, 44.70301862284537], [37.83529015534199, 44.70301733571596]]]}, "properties": {"id": "zone-42", "pixels": 2, "area_km2": 0.0002, "probability_max": 0.7029, "probability_mean": 0.5784, "centroid": [37.835355, 44.702928], "status_label": "обнаружено"}}, {"type": "Feature", "id": "zone-43", "geometry": {"type": "MultiPolygon", "coordinates": [[[[37.80885260595131, 44.71804864189248], [37.808726372063376, 44.71804732506441], [37.80872452506696, 44.71813732930694], [37.8088507591505, 44.71813864613911], [37.80885260595131, 44.71804864189248]]], [[[37.80884891234103, 44.71822865038425], [37.80897514662884, 44.71822996708104], [37.808976993242695, 44.718139962831785], [37.8088507591505, 44.71813864613911], [37.80884891234103, 44.71822865038425]]]]}, "properties": {"id": "zone-43", "pixels": 2, "area_km2": 0.0002, "probability_max": 0.6751, "probability_mean": 0.441, "centroid": [37.808851, 44.718139], "status_label": "обнаружено"}}, {"type": "Feature", "id": "zone-44", "geometry": {"type": "Polygon", "coordinates": [[[37.790947480331276, 44.7290233720639], [37.79095123085417, 44.72884336509395], [37.79120374395422, 44.72884603840746], [37.791199994214175, 44.7290260453941], [37.790947480331276, 44.7290233720639]]]}, "properties": {"id": "zone-44", "pixels": 4, "area_km2": 0.0004, "probability_max": 0.6581, "probability_mean": 0.5121, "centroid": [37.791076, 44.728935], "status_label": "обнаружено"}}, {"type": "Feature", "id": "zone-45", "geometry": {"type": "Polygon", "coordinates": [[[37.80715881889154, 44.70830841411164], [37.80716066768174, 44.708218409764875], [37.80741309259297, 44.70822104629037], [37.80741124419376, 44.70831105064536], [37.80715881889154, 44.70830841411164]]]}, "properties": {"id": "zone-45", "pixels": 2, "area_km2": 0.0002, "probability_max": 0.652, "probability_mean": 0.5984, "centroid": [37.807286, 44.708265], "status_label": "обнаружено"}}, {"type": "Feature", "id": "zone-46", "geometry": {"type": "Polygon", "coordinates": [[[37.78530356906616, 44.721131439456165], [37.78530545256643, 44.72104143603493], [37.785431691879346, 44.72104277882007], [37.78543357517516, 44.720952775393144], [37.78555981430128, 44.72095411803459], [37.785556048092076, 44.72113412489531], [37.78530356906616, 44.721131439456165]]]}, "properties": {"id": "zone-46", "pixels": 3, "area_km2": 0.0003, "probability_max": 0.6227, "probability_mean": 0.4413, "centroid": [37.785452, 44.721058], "status_label": "обнаружено"}}, {"type": "Feature", "id": "zone-47", "geometry": {"type": "Polygon", "coordinates": [[[37.77873280039079, 44.727362993004164], [37.77873469448941, 44.72727298990136], [37.778860947046994, 44.7272743400962], [37.778862840941045, 44.72718433698769], [37.778989093311814, 44.72718568703878], [37.778985305906204, 44.72736569326273], [37.77873280039079, 44.727362993004164]]]}, "properties": {"id": "zone-47", "pixels": 3, "area_km2": 0.0003, "probability_max": 0.6061, "probability_mean": 0.4165, "centroid": [37.778882, 44.72729], "status_label": "обнаружено"}}, {"type": "Feature", "id": "zone-48", "geometry": {"type": "Polygon", "coordinates": [[[37.808208501964465, 44.71867208590855], [37.80821034979527, 44.71858208169139], [37.80846281985782, 44.718584716373314], [37.808460972418246, 44.71867472059871], [37.808208501964465, 44.71867208590855]]]}, "properties": {"id": "zone-48", "pixels": 2, "area_km2": 0.0002, "probability_max": 0.5532, "probability_mean": 0.3801, "centroid": [37.808336, 44.718628], "status_label": "обнаружено"}}, {"type": "Feature", "id": "zone-49", "geometry": {"type": "Polygon", "coordinates": [[[37.78133685746533, 44.72964139717842], [37.78134063787767, 44.7294613908689], [37.781466895318324, 44.7294627382344], [37.78146311529741, 44.72964274455232], [37.78133685746533, 44.72964139717842]]]}, "properties": {"id": "zone-49", "pixels": 2, "area_km2": 0.0002, "probability_max": 0.5323, "probability_mean": 0.5011, "centroid": [37.781402, 44.729552], "status_label": "обнаружено"}}, {"type": "Feature", "id": "zone-50", "geometry": {"type": "Polygon", "coordinates": [[[37.7847665557418, 44.72868769126987], [37.784770325391186, 44.72850768470089], [37.78489658091791, 44.728509028252496], [37.78489469629334, 44.728599031541926], [37.78502095202461, 44.72860037495819], [37.78501906758691, 44.728690378250334], [37.7847665557418, 44.72868769126987]]]}, "properties": {"id": "zone-50", "pixels": 3, "area_km2": 0.0003, "probability_max": 0.5264, "probability_mean": 0.4555, "centroid": [37.784873, 44.728614], "status_label": "обнаружено"}}, {"type": "Feature", "id": "zone-51", "geometry": {"type": "Polygon", "coordinates": [[[37.7779002058965, 44.72492345420251], [37.77790210112509, 44.72483345108903], [37.77815459555823, 44.72483615306501], [37.778152700720966, 44.72492615618692], [37.7779002058965, 44.72492345420251]]]}, "properties": {"id": "zone-51", "pixels": 2, "area_km2": 0.0002, "probability_max": 0.5245, "probability_mean": 0.4733, "centroid": [37.778027, 44.72488], "status_label": "обнаружено"}}, {"type": "Feature", "id": "zone-52", "geometry": {"type": "MultiPolygon", "coordinates": [[[[37.78674337000746, 44.73077924814238], [37.786745251908144, 44.73068924482579], [37.78661899155182, 44.73068790326683], [37.786617109455406, 44.730777906579235], [37.78674337000746, 44.73077924814238]]], [[[37.78649084891217, 44.73077656487654], [37.7864889666112, 44.73086656818327], [37.78661522735016, 44.73086790989015], [37.786617109455406, 44.730777906579235], [37.78649084891217, 44.73077656487654]]]]}, "properties": {"id": "zone-52", "pixels": 2, "area_km2": 0.0002, "probability_max": 0.5227, "probability_mean": 0.3591, "centroid": [37.786617, 44.730778], "status_label": "обнаружено"}}, {"type": "Feature", "id": "zone-53", "geometry": {"type": "Polygon", "coordinates": [[[37.78751597906872, 44.730067267815414], [37.7875197403715, 44.729887261106754], [37.787772257693405, 44.72988994205606], [37.787770377437866, 44.7299799454195], [37.787644118576786, 44.72997860501044], [37.78764223811671, 44.73006860836821], [37.78751597906872, 44.730067267815414]]]}, "properties": {"id": "zone-53", "pixels": 3, "area_km2": 0.0003, "probability_max": 0.513, "probability_mean": 0.3897, "centroid": [37.787623, 44.729963], "status_label": "обнаружено"}}, {"type": "Feature", "id": "zone-54", "geometry": {"type": "Polygon", "coordinates": [[[37.78563904641385, 44.7292371131068], [37.78564092992599, 44.72914710980263], [37.78576718688449, 44.72914845240678], [37.78576907019209, 44.72905844909694], [37.785895326963704, 44.72905979155737], [37.78589156073111, 44.729239798183926], [37.78563904641385, 44.7292371131068]]]}, "properties": {"id": "zone-54", "pixels": 3, "area_km2": 0.0003, "probability_max": 0.5083, "probability_mean": 0.3205, "centroid": [37.785788, 44.729164], "status_label": "обнаружено"}}, {"type": "Feature", "id": "zone-55", "geometry": {"type": "MultiPolygon", "coordinates": [[[[37.808769491344925, 44.72209883152101], [37.80876764415455, 44.722188835700834], [37.80889388704993, 44.722190152578435], [37.808895734044654, 44.7221001483945], [37.808769491344925, 44.72209883152101]]], [[[37.80901828314624, 44.72228147350308], [37.809020129953964, 44.72219146931652], [37.80889388704993, 44.722190152578435], [37.80889204004655, 44.72228015676089], [37.80901828314624, 44.72228147350308]]], [[[37.80901828314624, 44.72228147350308], [37.80901643632985, 44.72237147768816], [37.80914267963384, 44.722372794294934], [37.80914452625457, 44.72228279010576], [37.80901828314624, 44.72228147350308]]], [[[37.80914083300444, 44.72246279848264], [37.809393320029685, 44.72246543128588], [37.80939516626777, 44.72237542708996], [37.80914267963384, 44.722372794294934], [37.80914083300444, 44.72246279848264]]], [[[37.80951956355528, 44.722466747478244], [37.809393320029685, 44.72246543128588], [37.80939147378293, 44.7225554354803], [37.80951771750418, 44.72255675167676], [37.80951956355528, 44.722466747478244]]]]}, "properties": {"id": "zone-55", "pixels": 6, "area_km2": 0.0006, "probability_max": 0.5006, "probability_mean": 0.3259, "centroid": [37.809143, 44.722343], "status_label": "обнаружено"}}, {"type": "Feature", "id": "zone-56", "geometry": {"type": "Polygon", "coordinates": [[[37.779117239185254, 44.72709703383193], [37.779119132670175, 44.72700703071202], [37.77937163667334, 44.72700973009971], [37.779369743579785, 44.72709973322802], [37.779117239185254, 44.72709703383193]]]}, "properties": {"id": "zone-56", "pixels": 2, "area_km2": 0.0002, "probability_max": 0.4919, "probability_mean": 0.3686, "centroid": [37.779244, 44.727053], "status_label": "обнаружено"}}, {"type": "Feature", "id": "zone-57", "geometry": {"type": "Polygon", "coordinates": [[[37.81688573311415, 44.72038274101024], [37.816889402082204, 44.72020273206251], [37.817015641030075, 44.72020403991719], [37.817013806745976, 44.72029404439588], [37.817140045898064, 44.72029535211513], [37.817138211801, 44.720385356596424], [37.81688573311415, 44.72038274101024]]]}, "properties": {"id": "zone-57", "pixels": 3, "area_km2": 0.0003, "probability_max": 0.4753, "probability_mean": 0.4248, "centroid": [37.816992, 44.720309], "status_label": "обнаружено"}}, {"type": "Feature", "id": "zone-58", "geometry": {"type": "Polygon", "coordinates": [[[37.78699546611274, 44.718718790470724], [37.78699922754209, 44.71853878343759], [37.78712546149243, 44.71854012429198], [37.78712358097776, 44.71863012781346], [37.787249815132526, 44.71863146853254], [37.787247934804654, 44.71872147205672], [37.78699546611274, 44.718718790470724]]]}, "properties": {"id": "zone-58", "pixels": 3, "area_km2": 0.0003, "probability_max": 0.4318, "probability_mean": 0.3453, "centroid": [37.787102, 44.718645], "status_label": "обнаружено"}}, {"type": "Feature", "id": "zone-59", "geometry": {"type": "MultiPolygon", "coordinates": [[[[37.80835136559199, 44.71786336527841], [37.80822513212989, 44.71786204790059], [37.808223284368374, 44.71795205212964], [37.80834951802608, 44.71795336951157], [37.80835136559199, 44.71786336527841]]], [[[37.808347670451504, 44.71804337374324], [37.808473904313466, 44.7180446909898], [37.808475751692434, 44.71795468675402], [37.80834951802608, 44.71795336951157], [37.808347670451504, 44.71804337374324]]]]}, "properties": {"id": "zone-59", "pixels": 2, "area_km2": 0.0002, "probability_max": 0.3568, "probability_mean": 0.2849, "centroid": [37.80835, 44.717953], "status_label": "обнаружено"}}, {"type": "Feature", "id": "zone-60", "geometry": {"type": "Polygon", "coordinates": [[[37.77799423638554, 44.72645485803746], [37.77799613156947, 44.72636485494507], [37.77824863267325, 44.72636755678532], [37.77824673788067, 44.72645755988615], [37.77799423638554, 44.72645485803746]]]}, "properties": {"id": "zone-60", "pixels": 2, "area_km2": 0.0002, "probability_max": 0.354, "probability_mean": 0.3083, "centroid": [37.778121, 44.726411], "status_label": "обнаружено"}}, {"type": "Feature", "id": "zone-61", "geometry": {"type": "Polygon", "coordinates": [[[37.789373272499354, 44.71973428245887], [37.78937514959871, 44.719644278879976], [37.789627622537424, 44.71964695524866], [37.7896257458293, 44.71973695883592], [37.789373272499354, 44.71973428245887]]]}, "properties": {"id": "zone-61", "pixels": 2, "area_km2": 0.0002, "probability_max": 0.305, "probability_mean": 0.2825, "centroid": [37.7895, 44.719691], "status_label": "обнаружено"}}, {"type": "Feature", "id": "zone-62", "geometry": {"type": "MultiPolygon", "coordinates": [[[[37.79000257976012, 44.71983097595351], [37.789876342868745, 44.719829638249074], [37.789874466534265, 44.71991964184169], [37.79000070362126, 44.719920979550324], [37.79000257976012, 44.71983097595351]]], [[[37.7899988274736, 44.72001098314564], [37.79012506476501, 44.72001232071892], [37.79012694071704, 44.719922317119426], [37.79000070362126, 44.719920979550324], [37.7899988274736, 44.72001098314564]]]]}, "properties": {"id": "zone-62", "pixels": 2, "area_km2": 0.0002, "probability_max": 0.2298, "probability_mean": 0.1973, "centroid": [37.790001, 44.719921], "status_label": "обнаружено"}}, {"type": "Feature", "id": "zone-63", "geometry": {"type": "Polygon", "coordinates": [[[37.78041380766112, 44.72549046808724], [37.78041569902959, 44.72540046489847], [37.78066819616567, 44.725403161343976], [37.780666305188554, 44.72549316454117], [37.78041380766112, 44.72549046808724]]]}, "properties": {"id": "zone-63", "pixels": 2, "area_km2": 0.0002, "probability_max": 0.1783, "probability_mean": 0.1699, "centroid": [37.780541, 44.725447], "status_label": "обнаружено"}}]}